{
  "type": "FeatureCollection",
  "features": [
    {
      "type": "Feature",
      "properties": {
        "norad_id": 34010,
        "name": "COSMOS 2251 DEB",
        "group": "cosmos-2251-debris",
        "lat": 42.0942029342107,
        "lon": 62.98151815226825,
        "alt_km": 499.4648896493327,
        "timestamp": "2025-12-24T18:55:56.465242+00:00",
        "meta_object_name": "COSMOS 2251 DEB",
        "meta_object_id": "1993-036GV",
        "meta_epoch": "2025-12-24T02:32:53.194272",
        "meta_mean_motion": 15.20549347,
        "meta_eccentricity": 0.00047134,
        "meta_inclination": 73.9972,
        "meta_ra_of_asc_node": 259.4433,
        "meta_arg_of_pericenter": 58.6224,
        "meta_mean_anomaly": 301.5434,
        "meta_ephemeris_type": 0,
        "meta_classification_type": "U",
        "meta_norad_cat_id": 34010,
        "meta_element_set_no": 999,
        "meta_rev_at_epoch": 89458,
        "meta_bstar": 0.00385511,
        "meta_mean_motion_dot": 0.00085389,
        "meta_mean_motion_ddot": 0,
        "tle_line1": "1 34010U 93036GV  25358.10617123  .00085389  00000+0  38551-2 0  9999",
        "tle_line2": "2 34010  73.9972 259.4433 0004713  58.6224 301.5434 15.20549347894583"
      },
      "geometry": {
        "type": "Point",
        "coordinates": [
          62.98151815226825,
          42.0942029342107
        ]
      }
    },
    {
      "type": "Feature",
      "properties": {
        "norad_id": 34011,
        "name": "COSMOS 2251 DEB",
        "group": "cosmos-2251-debris",
        "lat": 43.473318176598504,
        "lon": 112.02001704715904,
        "alt_km": 755.5971340412389,
        "timestamp": "2025-12-24T18:55:56.465252+00:00",
        "meta_object_name": "COSMOS 2251 DEB",
        "meta_object_id": "1993-036GW",
        "meta_epoch": "2025-12-24T06:39:29.454336",
        "meta_mean_motion": 14.4182197,
        "meta_eccentricity": 0.00362711,
        "meta_inclination": 74.0149,
        "meta_ra_of_asc_node": 308.7381,
        "meta_arg_of_pericenter": 29.1397,
        "meta_mean_anomaly": 331.1772,
        "meta_ephemeris_type": 0,
        "meta_classification_type": "U",
        "meta_norad_cat_id": 34011,
        "meta_element_set_no": 999,
        "meta_rev_at_epoch": 88082,
        "meta_bstar": 0.00081101718,
        "meta_mean_motion_dot": 2.646e-05,
        "meta_mean_motion_ddot": 0,
        "tle_line1": "1 34011U 93036GW  25358.27742424  .00002646  00000+0  81102-3 0  9997",
        "tle_line2": "2 34011  74.0149 308.7381 0036271  29.1397 331.1772 14.41821970880823"
      },
      "geometry": {
        "type": "Point",
        "coordinates": [
          112.02001704715904,
          43.473318176598504
        ]
      }
    },
    {
      "type": "Feature",
      "properties": {
        "norad_id": 34014,
        "name": "COSMOS 2251 DEB",
        "group": "cosmos-2251-debris",
        "lat": -7.899423438037102,
        "lon": -105.06115670246591,
        "alt_km": 634.488335812669,
        "timestamp": "2025-12-24T18:55:56.465262+00:00",
        "meta_object_name": "COSMOS 2251 DEB",
        "meta_object_id": "1993-036GZ",
        "meta_epoch": "2025-12-24T04:52:13.205568",
        "meta_mean_motion": 14.73268496,
        "meta_eccentricity": 0.00375488,
        "meta_inclination": 74.0167,
        "meta_ra_of_asc_node": 258.3608,
        "meta_arg_of_pericenter": 34.8438,
        "meta_mean_anomaly": 91.0544,
        "meta_ephemeris_type": 0,
        "meta_classification_type": "U",
        "meta_norad_cat_id": 34014,
        "meta_element_set_no": 999,
        "meta_rev_at_epoch": 89472,
        "meta_bstar": 0.00097064958,
        "meta_mean_motion_dot": 6.317e-05,
        "meta_mean_motion_ddot": 0,
        "tle_line1": "1 34014U 93036GZ  25358.20293062  .00006317  00000+0  97065-3 0  9996",
        "tle_line2": "2 34014  74.0167 258.3608 0037548  34.8438  91.0544 14.73268496894721"
      },
      "geometry": {
        "type": "Point",
        "coordinates": [
          -105.06115670246591,
          -7.899423438037102
        ]
      }
    },
    {
      "type": "Feature",
      "properties": {
        "norad_id": 34015,
        "name": "COSMOS 2251 DEB",
        "group": "cosmos-2251-debris",
        "lat": -74.01152228886284,
        "lon": 47.51675635498537,
        "alt_km": 687.0873474758009,
        "timestamp": "2025-12-24T18:55:56.465273+00:00",
        "meta_object_name": "COSMOS 2251 DEB",
        "meta_object_id": "1993-036HA",
        "meta_epoch": "2025-12-23T10:44:27.072384",
        "meta_mean_motion": 14.6037638,
        "meta_eccentricity": 0.00209622,
        "meta_inclination": 74.0244,
        "meta_ra_of_asc_node": 138.9674,
        "meta_arg_of_pericenter": 235.7756,
        "meta_mean_anomaly": 185.4899,
        "meta_ephemeris_type": 0,
        "meta_classification_type": "U",
        "meta_norad_cat_id": 34015,
        "meta_element_set_no": 999,
        "meta_rev_at_epoch": 88687,
        "meta_bstar": 0.0012018197,
        "meta_mean_motion_dot": 5.808e-05,
        "meta_mean_motion_ddot": 0,
        "tle_line1": "1 34015U 93036HA  25357.44753556  .00005808  00000+0  12018-2 0  9999",
        "tle_line2": "2 34015  74.0244 138.9674 0020962 235.7756 185.4899 14.60376380886877"
      },
      "geometry": {
        "type": "Point",
        "coordinates": [
          47.51675635498537,
          -74.01152228886284
        ]
      }
    },
    {
      "type": "Feature",
      "properties": {
        "norad_id": 34018,
        "name": "COSMOS 2251 DEB",
        "group": "cosmos-2251-debris",
        "lat": -39.25027791972717,
        "lon": -94.65325057955951,
        "alt_km": 1046.1714740617444,
        "timestamp": "2025-12-24T18:55:56.465283+00:00",
        "meta_object_name": "COSMOS 2251 DEB",
        "meta_object_id": "1993-036HD",
        "meta_epoch": "2025-12-24T07:46:15.494016",
        "meta_mean_motion": 13.81084411,
        "meta_eccentricity": 0.02631524,
        "meta_inclination": 73.878,
        "meta_ra_of_asc_node": 72.4656,
        "meta_arg_of_pericenter": 106.1269,
        "meta_mean_anomaly": 320.8949,
        "meta_ephemeris_type": 0,
        "meta_classification_type": "U",
        "meta_norad_cat_id": 34018,
        "meta_element_set_no": 999,
        "meta_rev_at_epoch": 84817,
        "meta_bstar": 0.00034577448,
        "meta_mean_motion_dot": 4.54e-06,
        "meta_mean_motion_ddot": 0,
        "tle_line1": "1 34018U 93036HD  25358.32379044  .00000454  00000+0  34577-3 0  9993",
        "tle_line2": "2 34018  73.8780  72.4656 0263152 106.1269 320.8949 13.81084411848179"
      },
      "geometry": {
        "type": "Point",
        "coordinates": [
          -94.65325057955951,
          -39.25027791972717
        ]
      }
    },
    {
      "type": "Feature",
      "properties": {
        "norad_id": 34019,
        "name": "COSMOS 2251 DEB",
        "group": "cosmos-2251-debris",
        "lat": 60.87138560177551,
        "lon": 177.48310158891016,
        "alt_km": 774.480977457185,
        "timestamp": "2025-12-24T18:55:56.465293+00:00",
        "meta_object_name": "COSMOS 2251 DEB",
        "meta_object_id": "1993-036HE",
        "meta_epoch": "2025-12-24T03:35:31.557984",
        "meta_mean_motion": 14.33985152,
        "meta_eccentricity": 0.00622282,
        "meta_inclination": 73.9532,
        "meta_ra_of_asc_node": 29.7556,
        "meta_arg_of_pericenter": 209.2515,
        "meta_mean_anomaly": 207.7104,
        "meta_ephemeris_type": 0,
        "meta_classification_type": "U",
        "meta_norad_cat_id": 34019,
        "meta_element_set_no": 999,
        "meta_rev_at_epoch": 87684,
        "meta_bstar": 0.00067490781,
        "meta_mean_motion_dot": 1.899e-05,
        "meta_mean_motion_ddot": 0,
        "tle_line1": "1 34019U 93036HE  25358.14967081  .00001899  00000+0  67491-3 0  9993",
        "tle_line2": "2 34019  73.9532  29.7556 0062228 209.2515 207.7104 14.33985152876841"
      },
      "geometry": {
        "type": "Point",
        "coordinates": [
          177.48310158891016,
          60.87138560177551
        ]
      }
    },
    {
      "type": "Feature",
      "properties": {
        "norad_id": 34021,
        "name": "COSMOS 2251 DEB",
        "group": "cosmos-2251-debris",
        "lat": -7.512041984437438,
        "lon": -70.63161329073749,
        "alt_km": 722.2946690263825,
        "timestamp": "2025-12-24T18:55:56.465303+00:00",
        "meta_object_name": "COSMOS 2251 DEB",
        "meta_object_id": "1993-036HG",
        "meta_epoch": "2025-12-24T02:19:09.727104",
        "meta_mean_motion": 14.4998687,
        "meta_eccentricity": 0.00209726,
        "meta_inclination": 74.036,
        "meta_ra_of_asc_node": 108.5044,
        "meta_arg_of_pericenter": 251.5081,
        "meta_mean_anomaly": 284.5816,
        "meta_ephemeris_type": 0,
        "meta_classification_type": "U",
        "meta_norad_cat_id": 34021,
        "meta_element_set_no": 999,
        "meta_rev_at_epoch": 88794,
        "meta_bstar": 0.00045043556,
        "meta_mean_motion_dot": 1.721e-05,
        "meta_mean_motion_ddot": 0,
        "tle_line1": "1 34021U 93036HG  25358.09664036  .00001721  00000+0  45044-3 0  9998",
        "tle_line2": "2 34021  74.0360 108.5044 0020972 251.5081 284.5816 14.49986870887942"
      },
      "geometry": {
        "type": "Point",
        "coordinates": [
          -70.63161329073749,
          -7.512041984437438
        ]
      }
    }
  ]
}